[{"OBJECT_NAME":"SL-12 R/B(2)","OBJECT_ID":"1986-090D","EPOCH":"2026-03-03T02:40:19.623936","MEAN_MOTION":1.00311056,"ECCENTRICITY":0.00076393,"INCLINATION":10.5048,"RA_OF_ASC_NODE":323.405,"ARG_OF_PERICENTER":183.7019,"MEAN_ANOMALY":176.289,"EPHEMERIS_TYPE":0,"CLASSIFICATION_TYPE":"U","NORAD_CAT_ID":17125,"ELEMENT_SET_NO":999,"REV_AT_EPOCH":14380,"BSTAR":0,"MEAN_MOTION_DOT":-3.8e-6,"MEAN_MOTION_DDOT":0},{"OBJECT_NAME":"GOES 7","OBJECT_ID":"1987-022A","EPOCH":"2026-03-03T09:44:14.504352","MEAN_MOTION":0.99894387,"ECCENTRICITY":0.00039437,"INCLINATION":13.0217,"RA_OF_ASC_NODE":338.3812,"ARG_OF_PERICENTER":14.6167,"MEAN_ANOMALY":182.393,"EPHEMERIS_TYPE":0,"CLASSIFICATION_TYPE":"U","NORAD_CAT_ID":17561,"ELEMENT_SET_NO":999,"REV_AT_EPOCH":12590,"BSTAR":0,"MEAN_MOTION_DOT":6.8e-7,"MEAN_MOTION_DDOT":0},{"OBJECT_NAME":"AGILA 1 (PALAPA B2P)","OBJECT_ID":"1987-029A","EPOCH":"2026-03-03T16:43:38.621856","MEAN_MOTION":0.9991474,"ECCENTRICITY":0.00029791,"INCLINATION":14.4132,"RA_OF_ASC_NODE":348.9753,"ARG_OF_PERICENTER":6.6335,"MEAN_ANOMALY":182.4167,"EPHEMERIS_TYPE":0,"CLASSIFICATION_TYPE":"U","NORAD_CAT_ID":17706,"ELEMENT_SET_NO":999,"REV_AT_EPOCH":4147,"BSTAR":0,"MEAN_MOTION_DOT":-3.75e-6,"MEAN_MOTION_DDOT":0},{"OBJECT_NAME":"SL-12 R/B(2)","OBJECT_ID":"1976-092F","EPOCH":"2026-03-04T02:27:31.457952","MEAN_MOTION":1.00225942,"ECCENTRICITY":0.0014923,"INCLINATION":3.7332,"RA_OF_ASC_NODE":271.6881,"ARG_OF_PERICENTER":193.0702,"MEAN_ANOMALY":178.5843,"EPHEMERIS_TYPE":0,"CLASSIFICATION_TYPE":"U","NORAD_CAT_ID":17872,"ELEMENT_SET_NO":999,"REV_AT_EPOCH":11787,"BSTAR":0,"MEAN_MOTION_DOT":-1.86e-6,"MEAN_MOTION_DDOT":0},{"OBJECT_NAME":"SL-12 R/B(2)","OBJECT_ID":"1979-035E","EPOCH":"2026-03-03T19:24:45.091872","MEAN_MOTION":1.00143659,"ECCENTRICITY":0.0025516,"INCLINATION":5.4848,"RA_OF_ASC_NODE":283.1379,"ARG_OF_PERICENTER":252.1214,"MEAN_ANOMALY":320.1945,"EPHEMERIS_TYPE":0,"CLASSIFICATION_TYPE":"U","NORAD_CAT_ID":17873,"ELEMENT_SET_NO":999,"REV_AT_EPOCH":18411,"BSTAR":0,"MEAN_MOTION_DOT":1.28e-6,"MEAN_MOTION_DDOT":0},{"OBJECT_NAME":"SL-12 R/B(2)","OBJECT_ID":"1984-016F","EPOCH":"2026-03-03T19:27:22.340736","MEAN_MOTION":1.00293375,"ECCENTRICITY":0.0034009,"INCLINATION":8.7765,"RA_OF_ASC_NODE":311.5619,"ARG_OF_PERICENTER":228.3334,"MEAN_ANOMALY":325.7091,"EPHEMERIS_TYPE":0,"CLASSIFICATION_TYPE":"U","NORAD_CAT_ID":17874,"ELEMENT_SET_NO":999,"REV_AT_EPOCH":12179,"BSTAR":0,"MEAN_MOTION_DOT":7.3e-7,"MEAN_MOTION_DDOT":0},{"OBJECT_NAME":"COSMOS 1888","OBJECT_ID":"1987-084A","EPOCH":"2026-03-02T18:49:00.585120","MEAN_MOTION":1.00173912,"ECCENTRICITY":0.00025174,"INCLINATION":10.9463,"RA_OF_ASC_NODE":326.7564,"ARG_OF_PERICENTER":298.7653,"MEAN_ANOMALY":284.9415,"EPHEMERIS_TYPE":0,"CLASSIFICATION_TYPE":"U","NORAD_CAT_ID":18384,"ELEMENT_SET_NO":999,"REV_AT_EPOCH":14062,"BSTAR":0,"MEAN_MOTION_DOT":-3.55e-6,"MEAN_MOTION_DDOT":0},{"OBJECT_NAME":"SL-12 R/B(2)","OBJECT_ID":"1987-084D","EPOCH":"2026-03-03T09:57:03.289824","MEAN_MOTION":1.00051519,"ECCENTRICITY":0.00290543,"INCLINATION":11.0975,"RA_OF_ASC_NODE":327.3536,"ARG_OF_PERICENTER":250.7205,"MEAN_ANOMALY":289.383,"EPHEMERIS_TYPE":0,"CLASSIFICATION_TYPE":"U","NORAD_CAT_ID":18387,"ELEMENT_SET_NO":999,"REV_AT_EPOCH":14771,"BSTAR":0,"MEAN_MOTION_DOT":7.7e-7,"MEAN_MOTION_DDOT":0},{"OBJECT_NAME":"COSMOS 1894","OBJECT_ID":"1987-091A","EPOCH":"2026-03-04T00:14:45.616416","MEAN_MOTION":1.0026535,"ECCENTRICITY":0.0005367,"INCLINATION":10.9038,"RA_OF_ASC_NODE":326.2182,"ARG_OF_PERICENTER":8.2225,"MEAN_ANOMALY":170.2084,"EPHEMERIS_TYPE":0,"CLASSIFICATION_TYPE":"U","NORAD_CAT_ID":18443,"ELEMENT_SET_NO":999,"REV_AT_EPOCH":11976,"BSTAR":0,"MEAN_MOTION_DOT":-1.88e-6,"MEAN_MOTION_DDOT":0},{"OBJECT_NAME":"SL-12 R/B(2)","OBJECT_ID":"1987-091D","EPOCH":"2026-03-03T17:03:03.695616","MEAN_MOTION":1.00234319,"ECCENTRICITY":0.0022433,"INCLINATION":10.9379,"RA_OF_ASC_NODE":326.3904,"ARG_OF_PERICENTER":266.0097,"MEAN_ANOMALY":331.6283,"EPHEMERIS_TYPE":0,"CLASSIFICATION_TYPE":"U","NORAD_CAT_ID":18446,"ELEMENT_SET_NO":999,"REV_AT_EPOCH":12894,"BSTAR":0,"MEAN_MOTION_DOT":-2.6e-6,"MEAN_MOTION_DDOT":0},{"OBJECT_NAME":"COSMOS 1897","OBJECT_ID":"1987-096A","EPOCH":"2026-03-03T18:25:16.482432","MEAN_MOTION":1.00322543,"ECCENTRICITY":0.00050944,"INCLINATION":11.1699,"RA_OF_ASC_NODE":327.5816,"ARG_OF_PERICENTER":132.0106,"MEAN_ANOMALY":48.7088,"EPHEMERIS_TYPE":0,"CLASSIFICATION_TYPE":"U","NORAD_CAT_ID":18575,"ELEMENT_SET_NO":999,"REV_AT_EPOCH":14013,"BSTAR":0,"MEAN_MOTION_DOT":-8.2e-7,"MEAN_MOTION_DDOT":0},{"OBJECT_NAME":"SL-12 R/B(2)","OBJECT_ID":"1987-096D","EPOCH":"2026-03-04T04:19:38.619840","MEAN_MOTION":1.00575941,"ECCENTRICITY":0.0022102,"INCLINATION":10.9631,"RA_OF_ASC_NODE":326.8458,"ARG_OF_PERICENTER":248.8255,"MEAN_ANOMALY":291.6451,"EPHEMERIS_TYPE":0,"CLASSIFICATION_TYPE":"U","NORAD_CAT_ID":18578,"ELEMENT_SET_NO":999,"REV_AT_EPOCH":13697,"BSTAR":0,"MEAN_MOTION_DOT":-2.82e-6,"MEAN_MOTION_DDOT":0},{"OBJECT_NAME":"RADUGA 21","OBJECT_ID":"1987-100A","EPOCH":"2026-03-04T02:55:38.762688","MEAN_MOTION":1.00356384,"ECCENTRICITY":0.0001631,"INCLINATION":11.456,"RA_OF_ASC_NODE":326.0021,"ARG_OF_PERICENTER":308.8377,"MEAN_ANOMALY":168.9352,"EPHEMERIS_TYPE":0,"CLASSIFICATION_TYPE":"U","NORAD_CAT_ID":18631,"ELEMENT_SET_NO":999,"REV_AT_EPOCH":14003,"BSTAR":0,"MEAN_MOTION_DOT":-2.2e-7,"MEAN_MOTION_DDOT":0},{"OBJECT_NAME":"STTW-2","OBJECT_ID":"1988-014A","EPOCH":"2026-03-03T17:22:00.464736","MEAN_MOTION":1.00301273,"ECCENTRICITY":0.00033543,"INCLINATION":13.3481,"RA_OF_ASC_NODE":340.4482,"ARG_OF_PERICENTER":186.0407,"MEAN_ANOMALY":324.1737,"EPHEMERIS_TYPE":0,"CLASSIFICATION_TYPE":"U","NORAD_CAT_ID":18922,"ELEMENT_SET_NO":999,"REV_AT_EPOCH":13905,"BSTAR":0,"MEAN_MOTION_DOT":-6.3e-7,"MEAN_MOTION_DDOT":0},{"OBJECT_NAME":"SPACENET 3R","OBJECT_ID":"1988-018A","EPOCH":"2026-03-03T22:49:46.263360","MEAN_MOTION":0.99659334,"ECCENTRICITY":0.0005506,"INCLINATION":14.6808,"RA_OF_ASC_NODE":0.4818,"ARG_OF_PERICENTER":287.0534,"MEAN_ANOMALY":257.9452,"EPHEMERIS_TYPE":0,"CLASSIFICATION_TYPE":"U","NORAD_CAT_ID":18951,"ELEMENT_SET_NO":999,"REV_AT_EPOCH":12356,"BSTAR":0,"MEAN_MOTION_DOT":8.8e-7,"MEAN_MOTION_DDOT":0},{"OBJECT_NAME":"COSMOS 1940","OBJECT_ID":"1988-034A","EPOCH":"2026-03-03T22:35:02.674752","MEAN_MOTION":1.00656752,"ECCENTRICITY":0.0021792,"INCLINATION":11.1122,"RA_OF_ASC_NODE":327.2642,"ARG_OF_PERICENTER":295.7836,"MEAN_ANOMALY":226.9733,"EPHEMERIS_TYPE":0,"CLASSIFICATION_TYPE":"U","NORAD_CAT_ID":19073,"ELEMENT_SET_NO":999,"REV_AT_EPOCH":12029,"BSTAR":0,"MEAN_MOTION_DOT":-4.4e-7,"MEAN_MOTION_DDOT":0},{"OBJECT_NAME":"SL-12 R/B(2)","OBJECT_ID":"1988-034D","EPOCH":"2026-03-04T02:47:38.546304","MEAN_MOTION":1.00082972,"ECCENTRICITY":0.0022073,"INCLINATION":11.4096,"RA_OF_ASC_NODE":328.2636,"ARG_OF_PERICENTER":189.7251,"MEAN_ANOMALY":287.6946,"EPHEMERIS_TYPE":0,"CLASSIFICATION_TYPE":"U","NORAD_CAT_ID":19076,"ELEMENT_SET_NO":999,"REV_AT_EPOCH":13805,"BSTAR":0,"MEAN_MOTION_DOT":-9.0e-8,"MEAN_MOTION_DDOT":0}]
