SL-12 R/B(2)            
1 17125U 86090D   26062.11133824 -.00000380  00000+0  00000+0 0  9998
2 17125  10.5048 323.4050 0007639 183.7019 176.2890  1.00311056143803
GOES 7                  
1 17561U 87022A   26062.40572343  .00000068  00000+0  00000+0 0  9995
2 17561  13.0217 338.3812 0003943  14.6167 182.3930  0.99894387125908
AGILA 1 (PALAPA B2P)    
1 17706U 87029A   26062.69697479 -.00000375  00000+0  00000+0 0  9994
2 17706  14.4132 348.9753 0002979   6.6335 182.4167  0.99914740 41475
SL-12 R/B(2)            
1 17872U 76092F   26063.10244743 -.00000186  00000+0  00000+0 0  9995
2 17872   3.7332 271.6881 0014923 193.0702 178.5843  1.00225942117874
SL-12 R/B(2)            
1 17873U 79035E   26062.80885523  .00000128  00000+0  00000+0 0  9994
2 17873   5.4848 283.1379 0025516 252.1214 320.1945  1.00143659184114
SL-12 R/B(2)            
1 17874U 84016F   26062.81067524  .00000073  00000+0  00000+0 0  9993
2 17874   8.7765 311.5619 0034009 228.3334 325.7091  1.00293375121796
COSMOS 1888             
1 18384U 87084A   26061.78403455 -.00000355  00000+0  00000+0 0  9994
2 18384  10.9463 326.7564 0002517 298.7653 284.9415  1.00173912140627
SL-12 R/B(2)            
1 18387U 87084D   26062.41462141  .00000077  00000+0  00000+0 0  9995
2 18387  11.0975 327.3536 0029054 250.7205 289.3830  1.00051519147717
COSMOS 1894             
1 18443U 87091A   26063.01025019 -.00000188  00000+0  00000+0 0  9996
2 18443  10.9038 326.2182 0005367   8.2225 170.2084  1.00265350119765
SL-12 R/B(2)            
1 18446U 87091D   26062.71045944 -.00000260  00000+0  00000+0 0  9995
2 18446  10.9379 326.3904 0022433 266.0097 331.6283  1.00234319128948
COSMOS 1897             
1 18575U 87096A   26062.76755188 -.00000082  00000+0  00000+0 0  9998
2 18575  11.1699 327.5816 0005094 132.0106  48.7088  1.00322543140132
SL-12 R/B(2)            
1 18578U 87096D   26063.18030810 -.00000282  00000+0  00000+0 0  9998
2 18578  10.9631 326.8458 0022102 248.8255 291.6451  1.00575941136974
RADUGA 21               
1 18631U 87100A   26063.12197642 -.00000022  00000+0  00000+0 0  9997
2 18631  11.4560 326.0021 0001631 308.8377 168.9352  1.00356384140031
STTW-2                  
1 18922U 88014A   26062.72361649 -.00000063  00000+0  00000+0 0  9995
2 18922  13.3481 340.4482 0003354 186.0407 324.1737  1.00301273139052
SPACENET 3R             
1 18951U 88018A   26062.95122990  .00000088  00000+0  00000+0 0  9996
2 18951  14.6808   0.4818 0005506 287.0534 257.9452  0.99659334123568
COSMOS 1940             
1 19073U 88034A   26062.94100318 -.00000044  00000+0  00000+0 0  9992
2 19073  11.1122 327.2642 0021792 295.7836 226.9733  1.00656752120295
SL-12 R/B(2)            
1 19076U 88034D   26063.11641836 -.00000009  00000+0  00000+0 0  9991
2 19076  11.4096 328.2636 0022073 189.7251 287.6946  1.00082972138051
